OBJECT_NAME,OBJECT_ID,EPOCH,MEAN_MOTION,ECCENTRICITY,INCLINATION,RA_OF_ASC_NODE,ARG_OF_PERICENTER,MEAN_ANOMALY,EPHEMERIS_TYPE,CLASSIFICATION_TYPE,NORAD_CAT_ID,ELEMENT_SET_NO,REV_AT_EPOCH,BSTAR,MEAN_MOTION_DOT,MEAN_MOTION_DDOT
STARLINK-31909,2024-084K,2024-10-09T04:56:46.778208,15.40699991,0.0001123,43.0032,92.5202,256.8639,103.2092,0,U,59663,999,2522,-6.7504E-05,-3.122E-05,0
STARLINK-31910,2024-084L,2024-10-09T04:37:25.413600,15.40682376,0.0001853,43.0037,92.3692,281.4413,78.6236,0,U,59664,999,2522,-1.1158E-04,-4.959E-05,0
STARLINK-31902,2024-084N,2024-10-09T11:39:13.602240,15.40672890,0.0002386,43.0062,91.1341,279.3765,80.6822,0,U,59666,999,2526,3.432E-05,1.129E-05,0
STARLINK-31913,2024-084P,2024-10-09T04:40:49.509408,15.40710019,0.0001528,43.0032,93.2623,308.9734,51.0987,0,U,59667,999,2518,8.5073E-05,3.253E-05,0
STARLINK-31866,2024-084Q,2024-10-09T11:03:44.801280,15.40648247,0.0001345,43.0020,90.9461,319.1248,40.9508,0,U,59668,999,2526,1.3264E-04,5.232E-05,0
STARLINK-31917,2024-084R,2024-10-08T19:43:05.154816,15.40697749,0.0001527,43.0020,94.7444,266.8733,93.1949,0,U,59669,999,2513,6.6216E-05,2.463E-05,0
STARLINK-31860,2024-084S,2024-10-09T04:21:29.438208,15.40666502,0.0002318,43.0002,93.1525,268.8619,91.1972,0,U,59670,999,2518,8.2098E-05,3.123E-05,0
STARLINK-31854,2024-084T,2024-10-09T04:01:56.238528,15.40681398,0.0001918,43.0036,92.2008,283.4351,76.6292,0,U,59671,999,2520,-1.1601E-04,-5.144E-05,0
STARLINK-31842,2024-084U,2024-10-09T04:15:01.503936,15.40701828,0.000175,42.9993,93.1221,286.6506,73.4159,0,U,59672,999,2518,-2.8603E-05,-1.498E-05,0
STARLINK-31871,2024-084V,2024-10-09T04:47:05.585280,15.40689630,0.0001622,43.0031,92.4163,274.5809,85.4862,0,U,59673,999,2527,-2.6874E-05,-1.426E-05,0
STARLINK-31875,2024-084W,2024-10-09T10:44:36.345696,15.40669831,0.0002133,43.0006,91.7154,8.3419,351.7473,0,U,59674,999,2525,3.1381E-05,1.006E-05,0
STARLINK-31877,2024-084X,2024-10-08T18:16:11.424576,15.40693424,0.0001363,43.0012,95.1495,271.2507,88.8194,0,U,59675,999,2515,4.443E-05,1.553E-05,0
STARLINK-31884,2024-084Y,2024-10-09T11:06:57.642624,15.40696153,0.0001176,43.0024,90.9800,252.1096,107.9633,0,U,59676,999,2526,1.4264E-04,5.659E-05,0
2024-085B,2024-085B,2024-10-09T13:18:54.700992,15.25136780,0.0011151,97.3987,356.3122,96.3978,263.8530,0,U,59678,999,2365,1.188E-03,2.9836E-04,0
2024-085C,2024-085C,2024-10-09T13:22:56.496576,15.24790762,0.001511,97.3940,356.0515,87.4807,272.8160,0,U,59679,999,2364,8.6108E-04,2.1391E-04,0
2024-085D,2024-085D,2024-10-09T12:23:23.800416,15.23192137,0.0011452,97.3921,355.7896,47.0395,313.1801,0,U,59680,999,2362,1.063E-03,2.5175E-04,0
2024-085E,2024-085E,2024-10-09T12:43:31.503072,15.40458690,0.0050774,97.3620,358.6507,155.9843,204.3787,0,U,59681,999,2385,8.9886E-04,3.8156E-04,0
STARLINK-32108,2024-086A,2024-10-09T13:16:16.890528,15.40678897,0.00016,43.0046,112.2168,276.5018,83.5656,0,U,59682,999,2496,-3.24E-05,-1.656E-05,0
STARLINK-32080,2024-086B,2024-10-09T06:01:46.509600,15.40684882,0.000154,43.0038,114.2598,271.5529,88.5151,0,U,59683,999,2493,-6.9946E-05,-3.223E-05,0
STARLINK-32091,2024-086C,2024-10-09T06:27:58.732992,15.40688373,0.0001854,43.0037,116.1658,260.6731,99.3916,0,U,59684,999,2482,-6.0704E-05,-2.838E-05,0
STARLINK-32085,2024-086D,2024-10-09T05:42:48.301920,15.40668536,0.0002029,43.0066,115.9200,303.4094,56.6568,0,U,59685,999,2490,3.1036E-05,9.91E-06,0
STARLINK-32100,2024-086E,2024-10-09T05:32:42.186048,15.40675454,0.000184,43.0023,104.3910,262.9309,97.1338,0,U,59686,999,2503,-3.5945E-04,-1.5277E-04,0
STARLINK-32089,2024-086F,2024-10-09T06:11:51.864288,15.40678052,0.0001304,43.0081,116.0780,288.6877,71.3838,0,U,59687,999,2482,-7.3521E-05,-3.371E-05,0
STARLINK-32103,2024-086G,2024-10-08T22:54:05.404608,15.40702307,0.0002195,43.0038,118.1025,262.6691,97.3916,0,U,59688,999,2485,3.0888E-05,9.87E-06,0
STARLINK-32105,2024-086H,2024-10-09T06:18:14.901408,15.40767291,0.0002053,43.0024,116.1125,261.7789,98.2835,0,U,59689,999,2482,-3.8607E-04,-1.6433E-04,0
STARLINK-32106,2024-086J,2024-10-08T22:50:51.565344,15.40699993,0.0001994,43.0028,118.0837,258.9298,101.1334,0,U,59690,999,2485,6.806E-05,2.54E-05,0
STARLINK-32090,2024-086K,2024-10-09T05:55:42.407904,15.40676594,0.0002109,43.0021,115.9931,262.3224,97.7393,0,U,59691,999,2490,-1.8052E-04,-7.831E-05,0
STARLINK-32095,2024-086L,2024-10-08T19:29:09.237408,15.40686647,0.0002153,43.0039,111.7113,277.3160,82.7451,0,U,59692,999,2483,-1.2891E-05,-8.42E-06,0
STARLINK-32088,2024-086M,2024-10-08T21:11:04.250112,15.40687193,0.0001805,43.0038,118.4236,258.7696,101.2958,0,U,59693,999,2484,3.0284E-05,9.61E-06,0
STARLINK-32107,2024-086N,2024-10-09T13:13:27.225120,15.40672819,0.0001944,43.0037,113.9700,263.2519,96.8116,0,U,59694,999,2495,8.3462E-05,3.181E-05,0
