59663,STARLINK-31909,2024,93.46,-1.0,+,43.0,Active,0,LEO,USA,USA,Unknown,Unknown,Unknown,1 59663U 24084K   24283.20609697 -.00003122  00000+0 -67504-4 0  9990,2 59663  43.0032  92.5202 0001123 256.8639 103.2092 15.40699991 25220,15.40699991,0.0001123,LEO
59664,STARLINK-31910,2024,93.47,-1.0,+,43.0,Active,0,LEO,USA,USA,Unknown,Unknown,Unknown,1 59664U 24084L   24283.19265525 -.00004959  00000+0 -11158-3 0  9999,2 59664  43.0037  92.3692 0001853 281.4413  78.6236 15.40682376 25225,15.40682376,0.0001853,LEO
59666,STARLINK-31902,2024,93.47,-1.0,+,43.01,Active,0,LEO,USA,USA,Unknown,Unknown,Unknown,1 59666U 24084N   24283.48557410  .00001129  00000+0  34320-4 0  9991,2 59666  43.0062  91.1341 0002386 279.3765  80.6822 15.40672890 25269,15.4067289,0.0002386,LEO
59667,STARLINK-31913,2024,93.46,-1.0,+,43.0,Active,0,LEO,USA,USA,Unknown,Unknown,Unknown,1 59667U 24084P   24283.19501747  .00003253  00000+0  85073-4 0  9993,2 59667  43.0032  93.2623 0001528 308.9734  51.0987 15.40710019 25186,15.40710019,0.0001528,LEO
59668,STARLINK-31866,2024,93.47,-1.0,+,43.0,Active,0,LEO,USA,USA,Unknown,Unknown,Unknown,1 59668U 24084Q   24283.46093520  .00005232  00000+0  13264-3 0  9990,2 59668  43.0020  90.9461 0001345 319.1248  40.9508 15.40648247 25267,15.40648247,0.0001345,LEO
59669,STARLINK-31917,2024,93.46,-1.0,+,43.0,Active,0,LEO,USA,USA,Unknown,Unknown,Unknown,1 59669U 24084R   24282.82158744  .00002463  00000+0  66216-4 0  9999,2 59669  43.0020  94.7444 0001527 266.8733  93.1949 15.40697749 25136,15.40697749,0.0001527,LEO
59670,STARLINK-31860,2024,93.47,-1.0,+,43.0,Active,0,LEO,USA,USA,Unknown,Unknown,Unknown,1 59670U 24084S   24283.18159072  .00003123  00000+0  82098-4 0  9996,2 59670  43.0002  93.1525 0002318 268.8619  91.1972 15.40666502 25187,15.40666502,0.0002318,LEO
59671,STARLINK-31854,2024,93.47,-1.0,+,43.0,Active,0,LEO,USA,USA,Unknown,Unknown,Unknown,1 59671U 24084T   24283.16801202 -.00005144  00000+0 -11601-3 0  9992,2 59671  43.0036  92.2008 0001918 283.4351  76.6292 15.40681398 25208,15.40681398,0.0001918,LEO
59672,STARLINK-31842,2024,93.46,-1.0,+,43.0,Active,0,LEO,USA,USA,Unknown,Unknown,Unknown,1 59672U 24084U   24283.17710074 -.00001498  00000+0 -28603-4 0  9999,2 59672  42.9993  93.1221 0001750 286.6506  73.4159 15.40701828 25182,15.40701828,0.000175,LEO
59673,STARLINK-31871,2024,93.46,-1.0,+,43.0,Active,0,LEO,USA,USA,Unknown,Unknown,Unknown,1 59673U 24084V   24283.19937020 -.00001426  00000+0 -26874-4 0  9993,2 59673  43.0031  92.4163 0001622 274.5809  85.4862 15.40689630 25275,15.4068963,0.0001622,LEO
59674,STARLINK-31875,2024,93.47,-1.0,+,43.0,Active,0,LEO,USA,USA,Unknown,Unknown,Unknown,1 59674U 24084W   24283.44764289  .00001006  00000+0  31381-4 0  9998,2 59674  43.0006  91.7154 0002133   8.3419 351.7473 15.40669831 25254,15.40669831,0.0002133,LEO
59675,STARLINK-31877,2024,93.46,-1.0,+,43.0,Active,0,LEO,USA,USA,Unknown,Unknown,Unknown,1 59675U 24084X   24282.76124334  .00001553  00000+0  44430-4 0  9990,2 59675  43.0012  95.1495 0001363 271.2507  88.8194 15.40693424 25153,15.40693424,0.0001363,LEO
59676,STARLINK-31884,2024,93.46,-1.0,+,43.0,Active,0,LEO,USA,USA,Unknown,Unknown,Unknown,1 59676U 24084Y   24283.46316716  .00005659  00000+0  14264-3 0  9998,2 59676  43.0024  90.9800 0001176 252.1096 107.9633 15.40696153 25268,15.40696153,0.0001176,LEO
59678,OBJECT B,2024,94.42,-1.0,+,97.4,Active,0,LEO,PRC,China,Unknown,Unknown,Unknown,1 59678U 24085B   24283.55479978  .00029836  00000+0  11880-2 0  9994,2 59678  97.3987 356.3122 0011151  96.3978 263.8530 15.25136780 23654,15.2513678,0.0011151,LEO
59679,OBJECT C,2024,94.44,-1.0,+,97.39,Active,0,LEO,PRC,China,Unknown,Unknown,Unknown,1 59679U 24085C   24283.55759834  .00021391  00000+0  86108-3 0  9991,2 59679  97.3940 356.0515 0015110  87.4807 272.8160 15.24790762 23641,15.24790762,0.001511,LEO
59680,OBJECT D,2024,94.54,-1.0,+,97.39,Active,0,LEO,PRC,China,Unknown,Unknown,Unknown,1 59680U 24085D   24283.51624769  .00025175  00000+0  10630-2 0  9997,2 59680  97.3921 355.7896 0011452  47.0395 313.1801 15.23192137 23629,15.23192137,0.0011452,LEO
59681,OBJECT E,2024,93.48,-1.0,+,97.36,Active,0,LEO,PRC,China,Unknown,Unknown,Unknown,1 59681U 24085E   24283.53022573  .00038156  00000+0  89886-3 0  9998,2 59681  97.3620 358.6507 0050774 155.9843 204.3787 15.40458690 23851,15.4045869,0.0050774,LEO
59682,STARLINK-32108,2024,93.46,-1.0,+,43.0,Active,0,LEO,USA,USA,Unknown,Unknown,Unknown,1 59682U 24086A   24283.55297327 -.00001656  00000+0 -32400-4 0  9991,2 59682  43.0046 112.2168 0001600 276.5018  83.5656 15.40678897 24965,15.40678897,0.00016,LEO
59683,STARLINK-32080,2024,93.46,-1.0,+,43.0,Active,0,LEO,USA,USA,Unknown,Unknown,Unknown,1 59683U 24086B   24283.25123275 -.00003223  00000+0 -69946-4 0  9996,2 59683  43.0038 114.2598 0001540 271.5529  88.5151 15.40684882 24934,15.40684882,0.000154,LEO
59684,STARLINK-32091,2024,93.46,-1.0,+,43.0,Active,0,LEO,USA,USA,Unknown,Unknown,Unknown,1 59684U 24086C   24283.26942978 -.00002838  00000+0 -60704-4 0  9991,2 59684  43.0037 116.1658 0001854 260.6731  99.3916 15.40688373 24820,15.40688373,0.0001854,LEO
59685,STARLINK-32085,2024,93.47,-1.0,+,43.01,Active,0,LEO,USA,USA,Unknown,Unknown,Unknown,1 59685U 24086D   24283.23805905  .00000991  00000+0  31036-4 0  9999,2 59685  43.0066 115.9200 0002029 303.4094  56.6568 15.40668536 24903,15.40668536,0.0002029,LEO
59686,STARLINK-32100,2024,93.47,-1.0,P,43.0,Active,0,LEO,USA,USA,Unknown,Unknown,Unknown,1 59686U 24086E   24283.23104382 -.00015277  00000+0 -35945-3 0  9998,2 59686  43.0023 104.3910 0001840 262.9309  97.1338 15.40675454 25032,15.40675454,0.000184,LEO
59687,STARLINK-32089,2024,93.47,-1.0,+,43.01,Active,0,LEO,USA,USA,Unknown,Unknown,Unknown,1 59687U 24086F   24283.25823917 -.00003371  00000+0 -73521-4 0  9998,2 59687  43.0081 116.0780 0001304 288.6877  71.3838 15.40678052 24824,15.40678052,0.0001304,LEO
59688,STARLINK-32103,2024,93.46,-1.0,+,43.0,Active,0,LEO,USA,USA,Unknown,Unknown,Unknown,1 59688U 24086G   24282.95422922  .00000987  00000+0  30888-4 0  9993,2 59688  43.0038 118.1025 0002195 262.6691  97.3916 15.40702307 24856,15.40702307,0.0002195,LEO
59689,STARLINK-32105,2024,93.46,-1.0,+,43.0,Active,0,LEO,USA,USA,Unknown,Unknown,Unknown,1 59689U 24086H   24283.26267247 -.00016433  00000+0 -38607-3 0  9997,2 59689  43.0024 116.1125 0002053 261.7789  98.2835 15.40767291 24822,15.40767291,0.0002053,LEO
59690,STARLINK-32106,2024,93.46,-1.0,+,43.0,Active,0,LEO,USA,USA,Unknown,Unknown,Unknown,1 59690U 24086J   24282.95198571  .00002540  00000+0  68060-4 0  9996,2 59690  43.0028 118.0837 0001994 258.9298 101.1334 15.40699993 24859,15.40699993,0.0001994,LEO
59691,STARLINK-32090,2024,93.47,-1.0,+,43.0,Active,0,LEO,USA,USA,Unknown,Unknown,Unknown,1 59691U 24086K   24283.24701861 -.00007831  00000+0 -18052-3 0  9997,2 59691  43.0021 115.9931 0002109 262.3224  97.7393 15.40676594 24904,15.40676594,0.0002109,LEO
59692,STARLINK-32095,2024,93.46,-1.0,+,43.0,Active,0,LEO,USA,USA,Unknown,Unknown,Unknown,1 59692U 24086L   24282.81191247 -.00000842  00000+0 -12891-4 0  9992,2 59692  43.0039 111.7113 0002153 277.3160  82.7451 15.40686647 24835,15.40686647,0.0002153,LEO
59693,STARLINK-32088,2024,93.46,-1.0,+,43.0,Active,0,LEO,USA,USA,Unknown,Unknown,Unknown,1 59693U 24086M   24282.88268808  .00000961  00000+0  30284-4 0  9994,2 59693  43.0038 118.4236 0001805 258.7696 101.2958 15.40687193 24842,15.40687193,0.0001805,LEO
59694,STARLINK-32107,2024,93.46,-1.0,+,43.0,Active,0,LEO,USA,USA,Unknown,Unknown,Unknown,1 59694U 24086N   24283.55100955  .00003181  00000+0  83462-4 0  9991,2 59694  43.0037 113.9700 0001944 263.2519  96.8116 15.40672819 24953,15.40672819,0.0001944,LEO
